start=new Date('2022-06-19T00:00:00.000Z').valueOf();
sats=[{"CLASSIFICATION_TYPE":"U","BSTAR":"0.00023684000000","MEAN_MOTION":"15.06411393","LAUNCH_DATE":"2021-03-14","PERIOD":"95.591","TIME_SYSTEM":"UTC","OBJECT_ID":"2021-021AT","GP_ID":"206287935","RCS_SIZE":"LARGE","MEAN_MOTION_DDOT":"0.0000000000000","ECCENTRICITY":"0.00014380","SEMIMAJOR_AXIS":"6925.314","PERIAPSIS":"546.183","RA_OF_ASC_NODE":"259.1073","MEAN_MOTION_DOT":"0.00003249","SITE":"AFETR","NORAD_CAT_ID":"47901","APOAPSIS":"548.175","CENTER_NAME":"EARTH","MEAN_ELEMENT_THEORY":"SGP4","TLE_LINE2":"2 47901  53.0547 259.1073 0001438  75.2998 284.8151 15.06411393 70931","ARG_OF_PERICENTER":"75.2998","ELEMENT_SET_NO":"999","MEAN_ANOMALY":"284.8151","EPOCH":"2022-06-15T23:45:09.330048","OBJECT_NAME":"STARLINK-2361","INCLINATION":"53.0547","COUNTRY_CODE":"US","TLE_LINE1":"1 47901U 21021AT  22166.98969132  .00003249  00000-0  23684-3 0  9995","REF_FRAME":"TEME","REV_AT_EPOCH":"7093","OBJECT_TYPE":"PAYLOAD","DECAY_DATE":null,"EPHEMERIS_TYPE":"0","FILE":"3497002"},{"MEAN_MOTION":"15.06402239","CLASSIFICATION_TYPE":"U","BSTAR":"0.00002852200000","TIME_SYSTEM":"UTC","LAUNCH_DATE":"2021-03-14","PERIOD":"95.592","OBJECT_ID":"2021-021AU","ECCENTRICITY":"0.00013870","GP_ID":"206288183","RCS_SIZE":"LARGE","MEAN_MOTION_DDOT":"0.0000000000000","PERIAPSIS":"546.246","SEMIMAJOR_AXIS":"6925.342","MEAN_MOTION_DOT":"0.00000143","RA_OF_ASC_NODE":"278.7904","SITE":"AFETR","NORAD_CAT_ID":"47902","TLE_LINE2":"2 47902  53.0559 278.7904 0001387  68.3015 291.8122 15.06402239 70778","APOAPSIS":"548.167","MEAN_ELEMENT_THEORY":"SGP4","CENTER_NAME":"EARTH","ARG_OF_PERICENTER":"68.3015","MEAN_ANOMALY":"291.8122","ELEMENT_SET_NO":"999","OBJECT_NAME":"STARLINK-2362","EPOCH":"2022-06-16T00:56:48.384096","COUNTRY_CODE":"US","INCLINATION":"53.0559","TLE_LINE1":"1 47902U 21021AU  22167.03944889  .00000143  00000-0  28522-4 0  9992","REF_FRAME":"TEME","REV_AT_EPOCH":"7077","DECAY_DATE":null,"EPHEMERIS_TYPE":"0","FILE":"3497002","OBJECT_TYPE":"PAYLOAD"},{"MEAN_ANOMALY":"305.8614","ELEMENT_SET_NO":"999","ARG_OF_PERICENTER":"54.2545","COUNTRY_CODE":"US","INCLINATION":"53.0554","OBJECT_NAME":"STARLINK-2363","EPOCH":"2022-06-15T23:54:24.392160","REF_FRAME":"TEME","TLE_LINE1":"1 47903U 21021AV  22166.99611565 -.00001201  00000-0 -61711-4 0  9994","DECAY_DATE":null,"FILE":"3497002","EPHEMERIS_TYPE":"0","OBJECT_TYPE":"PAYLOAD","REV_AT_EPOCH":"7128","TIME_SYSTEM":"UTC","PERIOD":"95.591","LAUNCH_DATE":"2021-03-14","MEAN_MOTION":"15.06411076","BSTAR":"-0.00006171100000","CLASSIFICATION_TYPE":"U","ECCENTRICITY":"0.00018270","GP_ID":"206288931","MEAN_MOTION_DDOT":"0.0000000000000","RCS_SIZE":"LARGE","OBJECT_ID":"2021-021AV","MEAN_MOTION_DOT":"-0.00001201","RA_OF_ASC_NODE":"258.9794","PERIAPSIS":"545.914","SEMIMAJOR_AXIS":"6925.315","TLE_LINE2":"2 47903  53.0554 258.9794 0001827  54.2545 305.8614 15.06411076 71280","APOAPSIS":"548.445","CENTER_NAME":"EARTH","MEAN_ELEMENT_THEORY":"SGP4","SITE":"AFETR","NORAD_CAT_ID":"47903"},{"EPOCH":"2022-06-15T23:50:28.036320","OBJECT_NAME":"STARLINK-2364","COUNTRY_CODE":"US","INCLINATION":"53.0542","ARG_OF_PERICENTER":"73.8295","MEAN_ANOMALY":"286.2849","ELEMENT_SET_NO":"999","REV_AT_EPOCH":"7092","EPHEMERIS_TYPE":"0","FILE":"3497002","DECAY_DATE":null,"OBJECT_TYPE":"PAYLOAD","TLE_LINE1":"1 47904U 21021AW  22166.99338005 -.00001936  00000-0 -11115-3 0  9997","REF_FRAME":"TEME","OBJECT_ID":"2021-021AW","ECCENTRICITY":"0.00014060","MEAN_MOTION_DDOT":"0.0000000000000","GP_ID":"206287687","RCS_SIZE":"LARGE","MEAN_MOTION":"15.06391968","BSTAR":"-0.00011115000000","CLASSIFICATION_TYPE":"U","TIME_SYSTEM":"UTC","LAUNCH_DATE":"2021-03-14","PERIOD":"95.593","NORAD_CAT_ID":"47904","SITE":"AFETR","TLE_LINE2":"2 47904  53.0542 259.0087 0001406  73.8295 286.2849 15.06391968 70926","CENTER_NAME":"EARTH","MEAN_ELEMENT_THEORY":"SGP4","APOAPSIS":"548.212","PERIAPSIS":"546.264","SEMIMAJOR_AXIS":"6925.373","MEAN_MOTION_DOT":"-0.00001936","RA_OF_ASC_NODE":"259.0087"},{"REV_AT_EPOCH":"7105","EPHEMERIS_TYPE":"0","FILE":"3497002","DECAY_DATE":null,"OBJECT_TYPE":"PAYLOAD","TLE_LINE1":"1 47905U 21021AX  22166.98874644 -.00000436  00000-0 -10354-4 0  9990","REF_FRAME":"TEME","OBJECT_NAME":"STARLINK-2365","EPOCH":"2022-06-15T23:43:47.692416","COUNTRY_CODE":"US","INCLINATION":"53.0538","ARG_OF_PERICENTER":"61.9486","MEAN_ANOMALY":"298.1623","ELEMENT_SET_NO":"999","SITE":"AFETR","NORAD_CAT_ID":"47905","TLE_LINE2":"2 47905  53.0538 259.0118 0001190  61.9486 298.1623 15.06389607 71051","CENTER_NAME":"EARTH","MEAN_ELEMENT_THEORY":"SGP4","APOAPSIS":"548.070","PERIAPSIS":"546.421","SEMIMAJOR_AXIS":"6925.380","MEAN_MOTION_DOT":"-0.00000436","RA_OF_ASC_NODE":"259.0118","OBJECT_ID":"2021-021AX","ECCENTRICITY":"0.00011900","GP_ID":"206287436","MEAN_MOTION_DDOT":"0.0000000000000","RCS_SIZE":"LARGE","MEAN_MOTION":"15.06389607","CLASSIFICATION_TYPE":"U","BSTAR":"-0.00001035400000","TIME_SYSTEM":"UTC","LAUNCH_DATE":"2021-03-14","PERIOD":"95.593"},{"EPHEMERIS_TYPE":"0","FILE":"3497002","DECAY_DATE":null,"OBJECT_TYPE":"PAYLOAD","REV_AT_EPOCH":"7326","REF_FRAME":"TEME","TLE_LINE1":"1 47906U 21021AY  22167.00983546  .00010422  00000-0  67629-4 0  9998","COUNTRY_CODE":"US","INCLINATION":"53.0348","OBJECT_NAME":"STARLINK-2366","EPOCH":"2022-06-16T00:14:09.783744","MEAN_ANOMALY":"326.2781","ELEMENT_SET_NO":"999","ARG_OF_PERICENTER":"33.8396","TLE_LINE2":"2 47906  53.0348 100.5316 0002482  33.8396 326.2781 15.76716143 73263","CENTER_NAME":"EARTH","MEAN_ELEMENT_THEORY":"SGP4","APOAPSIS":"341.422","SITE":"AFETR","NORAD_CAT_ID":"47906","MEAN_MOTION_DOT":"0.00010422","RA_OF_ASC_NODE":"100.5316","PERIAPSIS":"338.087","SEMIMAJOR_AXIS":"6717.889","ECCENTRICITY":"0.00024820","GP_ID":"206288684","RCS_SIZE":"LARGE","MEAN_MOTION_DDOT":"0.0000000000000","OBJECT_ID":"2021-021AY","TIME_SYSTEM":"UTC","LAUNCH_DATE":"2021-03-14","PERIOD":"91.329","MEAN_MOTION":"15.76716143","BSTAR":"0.00006762900000","CLASSIFICATION_TYPE":"U"},{"OBJECT_TYPE":"PAYLOAD","EPHEMERIS_TYPE":"0","FILE":"3497002","DECAY_DATE":null,"REV_AT_EPOCH":"7062","REF_FRAME":"TEME","TLE_LINE1":"1 47907U 21021AZ  22166.99889735 -.00003209  00000-0 -19655-3 0  9993","INCLINATION":"53.0561","COUNTRY_CODE":"US","OBJECT_NAME":"STARLINK-2367","EPOCH":"2022-06-15T23:58:24.731040","ELEMENT_SET_NO":"999","MEAN_ANOMALY":"284.9027","ARG_OF_PERICENTER":"75.2144","CENTER_NAME":"EARTH","MEAN_ELEMENT_THEORY":"SGP4","APOAPSIS":"548.311","TLE_LINE2":"2 47907  53.0561 278.9850 0001642  75.2144 284.9027 15.06412793 70629","NORAD_CAT_ID":"47907","SITE":"AFETR","RA_OF_ASC_NODE":"278.9850","MEAN_MOTION_DOT":"-0.00003209","SEMIMAJOR_AXIS":"6925.309","PERIAPSIS":"546.037","GP_ID":"206288431","MEAN_MOTION_DDOT":"0.0000000000000","RCS_SIZE":"LARGE","ECCENTRICITY":"0.00016420","OBJECT_ID":"2021-021AZ","LAUNCH_DATE":"2021-03-14","PERIOD":"95.591","TIME_SYSTEM":"UTC","CLASSIFICATION_TYPE":"U","BSTAR":"-0.00019655000000","MEAN_MOTION":"15.06412793"},{"OBJECT_TYPE":"PAYLOAD","DECAY_DATE":null,"EPHEMERIS_TYPE":"0","FILE":"3497002","REV_AT_EPOCH":"7065","REF_FRAME":"TEME","TLE_LINE1":"1 47908U 21021BA  22167.00628016 -.00001285  00000-0 -67374-4 0  9994","INCLINATION":"53.0547","COUNTRY_CODE":"US","OBJECT_NAME":"STARLINK-2368","EPOCH":"2022-06-16T00:09:02.605824","ELEMENT_SET_NO":"999","MEAN_ANOMALY":"290.1037","ARG_OF_PERICENTER":"70.0110","APOAPSIS":"548.244","MEAN_ELEMENT_THEORY":"SGP4","CENTER_NAME":"EARTH","TLE_LINE2":"2 47908  53.0547 278.9566 0001464  70.0110 290.1037 15.06394498 70650","SITE":"AFETR","NORAD_CAT_ID":"47908","RA_OF_ASC_NODE":"278.9566","MEAN_MOTION_DOT":"-0.00001285","SEMIMAJOR_AXIS":"6925.365","PERIAPSIS":"546.217","RCS_SIZE":"LARGE","GP_ID":"206287187","MEAN_MOTION_DDOT":"0.0000000000000","ECCENTRICITY":"0.00014640","OBJECT_ID":"2021-021BA","LAUNCH_DATE":"2021-03-14","PERIOD":"95.592","TIME_SYSTEM":"UTC","BSTAR":"-0.00006737400000","CLASSIFICATION_TYPE":"U","MEAN_MOTION":"15.06394498"},{"PERIAPSIS":"546.259","SEMIMAJOR_AXIS":"6925.315","MEAN_MOTION_DOT":"0.00000150","RA_OF_ASC_NODE":"268.8811","NORAD_CAT_ID":"47909","SITE":"AFETR","TLE_LINE2":"2 47909  53.0553 268.8811 0001330  66.1100 294.0028 15.06410906 70966","APOAPSIS":"548.101","MEAN_ELEMENT_THEORY":"SGP4","CENTER_NAME":"EARTH","MEAN_MOTION":"15.06410906","BSTAR":"0.00002895300000","CLASSIFICATION_TYPE":"U","TIME_SYSTEM":"UTC","LAUNCH_DATE":"2021-03-14","PERIOD":"95.591","OBJECT_ID":"2021-021BB","ECCENTRICITY":"0.00013300","RCS_SIZE":"LARGE","GP_ID":"206287936","MEAN_MOTION_DDOT":"0.0000000000000","TLE_LINE1":"1 47909U 21021BB  22167.02192699  .00000150  00000-0  28953-4 0  9998","REF_FRAME":"TEME","REV_AT_EPOCH":"7096","DECAY_DATE":null,"EPHEMERIS_TYPE":"0","FILE":"3497002","OBJECT_TYPE":"PAYLOAD","ARG_OF_PERICENTER":"66.1100","MEAN_ANOMALY":"294.0028","ELEMENT_SET_NO":"999","OBJECT_NAME":"STARLINK-2369","EPOCH":"2022-06-16T00:31:34.491936","COUNTRY_CODE":"US","INCLINATION":"53.0553"},{"MEAN_MOTION":"15.06388045","CLASSIFICATION_TYPE":"U","BSTAR":"-0.00000066650000","TIME_SYSTEM":"UTC","LAUNCH_DATE":"2021-03-14","PERIOD":"95.593","OBJECT_ID":"2021-021BC","ECCENTRICITY":"0.00015060","MEAN_MOTION_DDOT":"0.0000000000000","GP_ID":"206288184","RCS_SIZE":"LARGE","PERIAPSIS":"546.207","SEMIMAJOR_AXIS":"6925.385","MEAN_MOTION_DOT":"-0.00000291","RA_OF_ASC_NODE":"269.0157","SITE":"AFETR","NORAD_CAT_ID":"47910","TLE_LINE2":"2 47910  53.0568 269.0157 0001506  71.9825 288.1328 15.06388045 70812","APOAPSIS":"548.293","MEAN_ELEMENT_THEORY":"SGP4","CENTER_NAME":"EARTH","ARG_OF_PERICENTER":"71.9825","MEAN_ANOMALY":"288.1328","ELEMENT_SET_NO":"999","OBJECT_NAME":"STARLINK-2370","EPOCH":"2022-06-15T23:47:46.987584","COUNTRY_CODE":"US","INCLINATION":"53.0568","TLE_LINE1":"1 47910U 21021BC  22166.99151606 -.00000291  00000-0 -66650-6 0  9994","REF_FRAME":"TEME","REV_AT_EPOCH":"7081","DECAY_DATE":null,"EPHEMERIS_TYPE":"0","FILE":"3497002","OBJECT_TYPE":"PAYLOAD"}];
